[
    {
        "Altitude(m)": 624792.7383864773,
        "Argument of Periapsis(deg)": 0.0,
        "Eccentricity": 0.0,
        "Inclination(deg)": 60.0,
        "Latitude(deg)": -59.14698544850281,
        "Longitude(deg)": 109.02636032184922,
        "Mean Anomaly(deg)": -98.18179999999994,
        "RAAN(deg)": 315.0,
        "Satellite Name": "Test1 1402",
        "Satellite Number": 1402,
        "Semi-Major Axis(m)": 6980739.136638005,
        "Time(s)": 0
    },
    {
        "Altitude(m)": 624842.1306820157,
        "Argument of Periapsis(deg)": 0.00010418945913296404,
        "Eccentricity": 0.0,
        "Inclination(deg)": 60.0,
        "Latitude(deg)": -59.289069562175136,
        "Longitude(deg)": 110.15586077926578,
        "Mean Anomaly(deg)": -97.56169385453809,
        "RAAN(deg)": 314.99957995086027,
        "Satellite Name": "Test1 1402",
        "Satellite Number": 1402,
        "Semi-Major Axis(m)": 6980739.136638005,
        "Time(s)": 10
    }
]